H-2A R/B                
1 28932U 06002B   26201.00715452  .00004730  00000+0  22564-3 0  9992
2 28932  98.2604 359.8220 0051064 149.7780 210.6415 15.18491051114501
RESURS-DK 1             
1 29228U 06021A   26200.88732648  .00000908  00000+0  56925-4 0  9995
2 29228  69.9302 254.8969 0007388 265.9796  94.0526 15.13328606107523
CZ-4B R/B               
1 29507U 06046C   26201.08225527  .00002426  00000+0  12110-3 0  9992
2 29507  97.5432 245.5886 0033064 165.2595 194.9610 15.18003768 80122
CZ-2C R/B               
1 31114U 07010B   26201.24113124  .00000044  00000+0  39583-4 0  9996
2 31114  98.4120 307.9793 0057751 268.7871  90.6690 14.20282615998533
COSMO-SKYMED 1          
1 31598U 07023A   26201.28457038  .00001856  00000+0  16555-3 0  9990
2 31598  97.8853  33.4210 0001776  97.5890 262.5533 14.97236835 34742
COSMOS 2428             
1 31792U 07029A   26201.20534157  .00000303  00000+0  18806-3 0  9999
2 31792  70.9382 285.1528 0007280  71.3377 288.8534 14.12937853982818
SL-16 R/B               
1 31793U 07029B   26201.11957319  .00000300  00000+0  18020-3 0  9994
2 31793  70.9742 254.0010 0001905 258.2602 128.9285 14.14854662984104
KORONAS-FOTON           
1 33504U 09003A   26200.89289896  .00008216  00000+0  16513-3 0  9991
2 33504  82.4308 138.1271 0011778  47.6234 312.6009 15.46371595966159
CZ-2C R/B               
1 37731U 11030B   26200.86402012  .00000451  00000+0  63162-4 0  9990
2 37731  97.8672 155.6659 0050688 280.5326 133.2909 14.81537203809662
H-2A R/B                
1 38341U 12025E   26201.13603121  .00000916  00000+0  86871-4 0  9996
2 38341  98.4848 179.0054 0042697 238.2733 121.4321 14.95845356768010
SHIJIAN-16 (SJ-16)      
1 39358U 13057A   26201.28305949  .00001209  00000+0  11978-3 0  9995
2 39358  74.9736 293.9982 0015581 152.4582 207.7436 14.92680272691281
SL-4 R/B                
1 39679U 14021B   26200.85079018  .00006164  00000+0  13007-3 0  9990
2 39679  51.6065  50.6776 0089465 225.6465 133.7165 15.42539905676651
ALOS-2                  
1 39766U 14029A   26201.27927149  .00000133  00000+0  24681-4 0  9990
2 39766  97.9226 297.9703 0001579  92.0577 268.0816 14.79471989656475
YAOGAN-29               
1 41038U 15069A   26201.30435187  .00000170  00000+0  27540-4 0  9998
2 41038  98.0017 229.9877 0000232   6.1208 354.0008 14.83108151575538
ASTRO-H (HITOMI)        
1 41337U 16012A   26201.13893915  .00001213  00000+0  65864-4 0  9997
2 41337  30.9974 221.3529 0009666 225.0111 134.9744 15.10643702572279
HXMT (HUIYAN)           
1 42758U 17034A   26201.28418764  .00002533  00000+0  12993-3 0  9991
2 42758  43.0153 358.7134 0031618 352.7666   7.2723 15.18714173502690
SAOCOM 1A               
1 43641U 18076A   26201.28374605  .00000397  00000+0  56496-4 0  9998
2 43641  97.8892  27.5512 0001479  86.3263 273.8120 14.82149836421000
H-2A R/B                
1 43682U 18084L   26201.14194448  .00011185  00000+0  22747-3 0  9990
2 43682  98.8520  87.2598 0020293 281.8767  78.0202 15.46318117426212
SAOCOM 1B               
1 46265U 20059A   26201.31494618 -.00000448  00000+0 -49744-4 0  9995
2 46265  97.8896  26.6785 0001496  83.7599 276.3784 14.82142900318399
CSS (TIANHE)            
1 48274U 21035A   26201.15025581  .00011348  00000+0  15004-3 0  9993
2 48274  41.4683 121.7978 0001915 306.7446  53.3216 15.58213113298317
COSMOS 2550             
1 48865U 21056A   26201.28019766  .00003045  00000+0  98266-4 0  9991
2 48865  67.1441 359.8005 0008536 269.5504  90.4672 15.33858439283795
CZ-2C R/B               
1 52794U 22058K   26200.46326684  .00024060  00000+0  24806-3 0  9997
2 52794  50.1861 355.2840 0030109  40.5876 319.7335 15.64075932230693
CZ-2C R/B               
1 54039U 22132E   26201.28416229  .00043555  00000+0  28756-3 0  9998
2 54039  97.2897 209.8860 0008622 317.4870  42.5727 15.75445426211156
GSLV R/B                
1 54149U 22138AN  26201.19891363  .00001591  00000+0  13370-3 0  9992
2 54149  87.3816 121.8992 0022938  35.5571 324.7183 14.97397023203750
XRISM                   
1 57800U 23137A   26201.18524264  .00002251  00000+0  11998-3 0  9999
2 57800  31.0011 145.8091 0007848 295.7303  64.2525 15.12690874157866
ACS3                    
1 59588U 24077B   26200.70021256  .00003608  00000+0  25000-2 0  9993
2 59588  97.1775 112.2879 0129376  31.3060 329.5729 13.95428126112578
SPACEMOBILE-003         
1 61045U 24163A   26201.14245972  .00001670  00000+0  89590-4 0  9995
2 61045  52.9674 157.8928 0004241 210.2897 149.7852 15.20721715102786
SPACEMOBILE-005         
1 61046U 24163B   26201.25732527  .00001252  00000+0  70891-4 0  9995
2 61046  52.9743 157.3189 0008669 211.7347 148.3126 15.20720640102798
SPACEMOBILE-001         
1 61047U 24163C   26201.25568385 -.00000135  00000+0  86599-5 0  9998
2 61047  52.9710 157.0335 0006953 209.4162 150.6442 15.20700764102798
SPACEMOBILE-002         
1 61048U 24163D   26200.18806198  .00010534  00000+0  48876-3 0  9994
2 61048  52.9793 161.9891 0004751 205.9492 154.1265 15.20578455102637
