OBJECT_NAME,OBJECT_ID,EPOCH,MEAN_MOTION,ECCENTRICITY,INCLINATION,RA_OF_ASC_NODE,ARG_OF_PERICENTER,MEAN_ANOMALY,EPHEMERIS_TYPE,CLASSIFICATION_TYPE,NORAD_CAT_ID,ELEMENT_SET_NO,REV_AT_EPOCH,BSTAR,MEAN_MOTION_DOT,MEAN_MOTION_DDOT
H-2A R/B,2006-002B,2026-07-20T00:10:18.150528,15.18491051,.00510647,98.2604,359.8220,149.7780,210.6415,0,U,28932,999,11450,.22564268E-3,.473E-4,0
RESURS-DK 1,2006-021A,2026-07-19T21:17:45.007872,15.13328606,.00073886,69.9302,254.8969,265.9796,94.0526,0,U,29228,999,10752,.56924965E-4,.908E-5,0
CZ-4B R/B,2006-046C,2026-07-20T01:58:26.855328,15.18003768,.0033064,97.5432,245.5886,165.2595,194.9610,0,U,29507,999,8012,.12110144E-3,.2426E-4,0
CZ-2C R/B,2007-010B,2026-07-20T05:47:13.739136,14.20282615,.00577512,98.4120,307.9793,268.7871,90.6690,0,U,31114,999,99853,.39582678E-4,.44E-6,0
COSMO-SKYMED 1,2007-023A,2026-07-20T06:49:46.880832,14.97236835,.00017761,97.8853,33.4210,97.5890,262.5533,0,U,31598,999,3474,.16554611E-3,.1856E-4,0
COSMOS 2428,2007-029A,2026-07-20T04:55:41.511648,14.12937853,.00072805,70.9382,285.1528,71.3377,288.8534,0,U,31792,999,98281,.18805852E-3,.303E-5,0
SL-16 R/B,2007-029B,2026-07-20T02:52:11.123616,14.14854662,.00019055,70.9742,254.0010,258.2602,128.9285,0,U,31793,999,98410,.18020043E-3,.3E-5,0
KORONAS-FOTON,2009-003A,2026-07-19T21:25:46.470144,15.46371595,.0011778,82.4308,138.1271,47.6234,312.6009,0,U,33504,999,96615,.16512875E-3,.8216E-4,0
CZ-2C R/B,2011-030B,2026-07-19T20:44:11.338368,14.81537203,.0050688,97.8672,155.6659,280.5326,133.2909,0,U,37731,999,80966,.63162402E-4,.451E-5,0
H-2A R/B,2012-025E,2026-07-20T03:15:53.096544,14.95845356,.00426973,98.4848,179.0054,238.2733,121.4321,0,U,38341,999,76801,.8687118E-4,.916E-5,0
SHIJIAN-16 (SJ-16),2013-057A,2026-07-20T06:47:36.339936,14.92680272,.00155813,74.9736,293.9982,152.4582,207.7436,0,U,39358,999,69128,.1197807E-3,.1209E-4,0
SL-4 R/B,2014-021B,2026-07-19T20:25:08.271552,15.42539905,.00894653,51.6065,50.6776,225.6465,133.7165,0,U,39679,999,67665,.13006542E-3,.6164E-4,0
ALOS-2,2014-029A,2026-07-20T06:42:09.056736,14.79471989,.0001579,97.9226,297.9703,92.0577,268.0816,0,U,39766,999,65647,.24680774E-4,.133E-5,0
YAOGAN-29,2015-069A,2026-07-20T07:18:16.001568,14.83108151,.00002321,98.0017,229.9877,6.1208,354.0008,0,U,41038,999,57553,.2753984E-4,.17E-5,0
ASTRO-H (HITOMI),2016-012A,2026-07-20T03:20:04.342560,15.10643702,.00096669,30.9974,221.3529,225.0111,134.9744,0,U,41337,999,57227,.65863706E-4,.1213E-4,0
HXMT (HUIYAN),2017-034A,2026-07-20T06:49:13.812096,15.18714173,.0031618,43.0153,358.7134,352.7666,7.2723,0,U,42758,999,50269,.1299257E-3,.2533E-4,0
SAOCOM 1A,2018-076A,2026-07-20T06:48:35.658720,14.82149836,.00014796,97.8892,27.5512,86.3263,273.8120,0,U,43641,999,42100,.56496439E-4,.397E-5,0
H-2A R/B,2018-084L,2026-07-20T03:24:24.003072,15.46318117,.00202931,98.8520,87.2598,281.8767,78.0202,0,U,43682,999,42621,.22746842E-3,.11185E-3,0
SAOCOM 1B,2020-059A,2026-07-20T07:33:31.349952,14.82142900,.00014961,97.8896,26.6785,83.7599,276.3784,0,U,46265,999,31839,-.49743814E-4,-.448E-5,0
CSS (TIANHE),2021-035A,2026-07-20T03:36:22.101984,15.58213113,.00019156,41.4683,121.7978,306.7446,53.3216,0,U,48274,999,29831,.15004409E-3,.11348E-3,0
COSMOS 2550,2021-056A,2026-07-20T06:43:29.077824,15.33858439,.00085367,67.1441,359.8005,269.5504,90.4672,0,U,48865,999,28379,.98265989E-4,.3045E-4,0
CZ-2C R/B,2022-058K,2026-07-19T11:07:06.254976,15.64075932,.00301094,50.1861,355.2840,40.5876,319.7335,0,U,52794,999,23069,.24805896E-3,.2406E-3,0
CZ-2C R/B,2022-132E,2026-07-20T06:49:11.621856,15.75445426,.00086225,97.2897,209.8860,317.4870,42.5727,0,U,54039,999,21115,.2875643E-3,.43555E-3,0
GSLV R/B,2022-138AN,2026-07-20T04:46:26.137632,14.97397023,.00229386,87.3816,121.8992,35.5571,324.7183,0,U,54149,999,20375,.1336992E-3,.1591E-4,0
XRISM,2023-137A,2026-07-20T04:26:44.964096,15.12690874,.00078481,31.0011,145.8091,295.7303,64.2525,0,U,57800,999,15786,.11998334E-3,.2251E-4,0
ACS3,2024-077B,2026-07-19T16:48:18.365184,13.95428126,.01293761,97.1775,112.2879,31.3060,329.5729,0,U,59588,999,11257,.25000287E-2,.3608E-4,0
SPACEMOBILE-003,2024-163A,2026-07-20T03:25:08.519808,15.20721715,.0004241,52.9674,157.8928,210.2897,149.7852,0,U,61045,999,10278,.89590351E-4,.167E-4,0
SPACEMOBILE-005,2024-163B,2026-07-20T06:10:32.903328,15.20720640,.00086691,52.9743,157.3189,211.7347,148.3126,0,U,61046,999,10279,.70890635E-4,.1252E-4,0
SPACEMOBILE-001,2024-163C,2026-07-20T06:08:11.084640,15.20700764,.00069537,52.9710,157.0335,209.4162,150.6442,0,U,61047,999,10279,.8659876E-5,-.135E-5,0
SPACEMOBILE-002,2024-163D,2026-07-19T04:30:48.555072,15.20578455,.00047519,52.9793,161.9891,205.9492,154.1265,0,U,61048,999,10263,.48876039E-3,.10534E-3,0
